      2.10          N: GNSS NAV DATA                        RINEX VERSION / TYPE
fic2rin                                 10/12/2021 00:17:46 PGM / RUN BY / DATE
                                                            END OF HEADER
19 21 10 11 22  0  0.0 6.461562588811e-05 5.002220859751e-12 0.000000000000e+00
    4.900000000000e+01 1.540625000000e+01 4.095884895761e-09 6.721856513448e-02
    8.773058652878e-07 9.040134842508e-03 3.566965460777e-06 5.153659317017e+03
    1.656000000000e+05-9.126961231232e-08-6.090094741120e-01-1.527369022369e-07
    9.797542194273e-01 3.256562500000e+02 1.956547641880e+00-8.201770208079e-09
   -8.178912113090e-11 1.000000000000e+00 2.179000000000e+03 0.000000000000e+00
    2.400000000000e+00 0.000000000000e+00-1.536682248116e-08 4.900000000000e+01
    1.584000000000e+05 4.000000000000e+00
21 21 10 11 22  0  0.0 1.471512950957e-04 1.818989403546e-12 0.000000000000e+00
    2.500000000000e+01-7.671875000000e+01 4.317679848696e-09-2.204527817375e+00
   -3.458932042122e-06 2.410838857759e-02 4.202127456665e-06 5.153635482788e+03
    1.656000000000e+05 1.024454832077e-07 2.553843959566e-01 5.383044481277e-07
    9.586843047979e-01 2.945937500000e+02-1.073427506073e+00-7.953545582813e-09
   -3.893019302737e-11 1.000000000000e+00 2.179000000000e+03 0.000000000000e+00
    2.400000000000e+00 0.000000000000e+00-1.024454832077e-08 2.500000000000e+01
    1.584000000000e+05 4.000000000000e+00
24 21 10 11 22  0  0.0 2.519250847399e-04 6.366462912410e-12 0.000000000000e+00
    7.600000000000e+01 1.431250000000e+01 5.247004273075e-09 2.065961672511e+00
    6.705522537231e-07 1.174442528281e-02 8.836388587952e-06 5.153708690643e+03
    1.656000000000e+05-2.589076757431e-07-2.883567781201e+00-1.210719347000e-07
    9.351037067542e-01 1.967812500000e+02 7.651355776651e-01-8.175697693483e-09
   -3.089414400796e-10 1.000000000000e+00 2.179000000000e+03 0.000000000000e+00
    3.400000000000e+00 0.000000000000e+00 2.793967723846e-09 7.600000000000e+01
    1.584000000000e+05 4.000000000000e+00
17 21 10 11 22  0  0.0 5.178097635508e-04 5.570655048359e-12 0.000000000000e+00
    4.700000000000e+01 3.006250000000e+01 3.999452307528e-09-2.299066632188e+00
    1.685693860054e-06 1.364082796499e-02 2.857297658920e-06 5.153682641983e+03
    1.656000000000e+05 2.011656761169e-07-6.540073625346e-01 7.450580596924e-08
    9.810790380399e-01 3.353437500000e+02-1.550407874517e+00-7.831040479983e-09
   -1.392915163365e-11 1.000000000000e+00 2.179000000000e+03 0.000000000000e+00
    2.400000000000e+00 0.000000000000e+00-1.117587089539e-08 4.700000000000e+01
    1.584000000000e+05 4.000000000000e+00
25 21 10 11 22  0  0.0 2.228673547506e-04 6.139089236967e-12 0.000000000000e+00
    1.080000000000e+02 9.768750000000e+01 4.577333521457e-09 2.137272609069e-01
    5.150213837624e-06 9.870246634819e-03 7.692724466324e-06 5.153773540497e+03
    1.656000000000e+05-5.401670932770e-08-1.766377585494e+00 1.024454832077e-07
    9.590793351040e-01 2.299062500000e+02 9.622102987097e-01-8.212127782371e-09
   -2.432244169875e-10 1.000000000000e+00 2.179000000000e+03 0.000000000000e+00
    3.400000000000e+00 0.000000000000e+00 5.587935447693e-09 1.080000000000e+02
    1.584000000000e+05 4.000000000000e+00
18 21 10 11 22  0  0.0 3.114715218544e-04-5.002220859751e-12 0.000000000000e+00
    2.600000000000e+01-9.784375000000e+01 4.163744865258e-09 1.997610985796e+00
   -4.969537258148e-06 2.022122847848e-03 5.800276994705e-06 5.153651460648e+03
    1.656000000000e+05-3.539025783539e-08 3.524807719304e-01 4.842877388000e-08
    9.697165781878e-01 2.721562500000e+02 2.988597630676e+00-8.067836057755e-09
   -8.036049019412e-11 1.000000000000e+00 2.179000000000e+03 0.000000000000e+00
    2.400000000000e+00 0.000000000000e+00-8.381903171539e-09 7.940000000000e+02
    1.584000000000e+05 4.000000000000e+00
14 21 10 11 22  0  0.0-1.700734719634e-05-7.617018127348e-12 0.000000000000e+00
    1.760000000000e+02 8.665625000000e+01 4.604834666990e-09 3.070316976283e-01
    4.358589649200e-06 1.123670488596e-03 7.849186658859e-06 5.153647569656e+03
    1.656000000000e+05 1.490116119385e-08-1.720469993167e+00 5.587935447693e-09
    9.551186658062e-01 2.241562500000e+02 3.136505137994e+00-8.109980670390e-09
   -2.242950570751e-10 1.000000000000e+00 2.179000000000e+03 0.000000000000e+00
    2.400000000000e+00 0.000000000000e+00-7.916241884232e-09 4.320000000000e+02
    1.584000000000e+05 4.000000000000e+00
11 21 10 11 22  0  0.0 2.163229510188e-05 7.958078640513e-13 0.000000000000e+00
    1.590000000000e+02-8.321875000000e+01 4.263749030833e-09-1.786265033680e+00
   -4.248693585396e-06 4.687714390457e-04 5.889683961868e-06 5.153719541550e+03
    1.656000000000e+05-1.490116119385e-08 3.894883144488e-01-9.313225746155e-09
    9.609721258091e-01 2.642812500000e+02 2.270903798750e+00-8.082479524857e-09
    3.857303529318e-11 1.000000000000e+00 2.179000000000e+03 0.000000000000e+00
    3.072000000000e+03 6.300000000000e+01-8.381903171539e-09 4.150000000000e+02
    1.584000000000e+05 4.000000000000e+00
28 21 10 11 22  0  0.0 4.843487404287e-04-7.275957614183e-12 0.000000000000e+00
    1.030000000000e+02 9.787500000000e+01 4.098027842166e-09-1.837821679781e+00
    5.241483449936e-06 1.746649481356e-02 7.450580596924e-06 5.153724170685e+03
    1.656000000000e+05 3.166496753693e-08-1.668941758397e+00 4.339963197708e-07
    9.707854241724e-01 2.437500000000e+02-1.327174469527e+00-7.801396388045e-09
   -2.096515899731e-10 1.000000000000e+00 2.179000000000e+03 0.000000000000e+00
    4.850000000000e+00 6.300000000000e+01-1.117587089539e-08 1.030000000000e+02
    1.584000000000e+05 4.000000000000e+00
28 21 10 11 21 59 44.0 4.843520000577e-04-7.162270776462e-12 0.000000000000e+00
    1.000000000000e+00 9.787500000000e+01 4.098027842166e-09-1.840155225760e+00
    5.241483449936e-06 1.746649458073e-02 7.450580596924e-06 5.153724172592e+03
    1.655840000000e+05 3.166496753693e-08-1.668941619420e+00 4.339963197708e-07
    9.707854329499e-01 2.437500000000e+02-1.327174656780e+00-7.801396388045e-09
   -2.096515899731e-10 1.000000000000e+00 2.179000000000e+03 0.000000000000e+00
    2.400000000000e+00 6.300000000000e+01-1.117587089539e-08 1.000000000000e+00
    1.590600000000e+05 4.000000000000e+00
25 21 10 11 21 59 44.0 2.228692173958e-04 6.139089236967e-12 0.000000000000e+00
    0.000000000000e+00 9.768750000000e+01 4.577333521457e-09 2.113931824260e-01
    5.150213837624e-06 9.870247682557e-03 7.692724466324e-06 5.153773546219e+03
    1.655840000000e+05-5.401670932770e-08-1.766377459683e+00 1.024454832077e-07
    9.590793204748e-01 2.299062500000e+02 9.622107580660e-01-8.212127782371e-09
   -2.432244169875e-10 1.000000000000e+00 2.179000000000e+03 0.000000000000e+00
    2.400000000000e+00 0.000000000000e+00 5.587935447693e-09 0.000000000000e+00
    1.597200000000e+05 4.000000000000e+00
24 21 10 11 21 59 44.0 2.519250847399e-04 6.366462912410e-12 0.000000000000e+00
    0.000000000000e+00 1.431250000000e+01 5.247004273075e-09 2.063627594030e+00
    6.705522537231e-07 1.174442167394e-02 8.836388587952e-06 5.153708702087e+03
    1.655840000000e+05-2.589076757431e-07-2.883567652464e+00-1.210719347000e-07
    9.351037199205e-01 1.967812500000e+02 7.651358863408e-01-8.175697693483e-09
   -3.089414400796e-10 1.000000000000e+00 2.179000000000e+03 0.000000000000e+00
    2.400000000000e+00 0.000000000000e+00 2.793967723846e-09 0.000000000000e+00
    1.599300000000e+05 4.000000000000e+00
24 21 10 11 23 59 44.0 2.519707195461e-04 6.366462912410e-12 0.000000000000e+00
    6.000000000000e+00 1.303125000000e+01 5.202359556300e-09 3.113802934482e+00
    5.438923835754e-07 1.174468256067e-02 8.851289749146e-06 5.153708166122e+03
    1.727840000000e+05-9.126961231232e-08-2.883625987786e+00-2.142041921616e-07
    9.351020419535e-01 1.950937500000e+02 7.651252362972e-01-8.072836266034e-09
   -2.867976605595e-10 1.000000000000e+00 2.179000000000e+03 0.000000000000e+00
    2.400000000000e+00 0.000000000000e+00 2.793967723846e-09 6.000000000000e+00
    1.656000000000e+05 4.000000000000e+00
25 21 10 11 23 59 44.0 2.229134552181e-04 6.139089236967e-12 0.000000000000e+00
    4.000000000000e+00 8.950000000000e+01 4.546975114050e-09 1.261414784818e+00
    4.682689905167e-06 9.870650479570e-03 8.013099431992e-06 5.153775360107e+03
    1.727840000000e+05-1.825392246246e-07-1.766436764919e+00 9.872019290924e-08
    9.590776512853e-01 2.251875000000e+02 9.623095240543e-01-8.169626012001e-09
   -1.971510692762e-10 1.000000000000e+00 2.179000000000e+03 0.000000000000e+00
    2.400000000000e+00 0.000000000000e+00 5.587935447693e-09 4.000000000000e+00
    1.656000000000e+05 4.000000000000e+00
28 21 10 11 23 59 44.0 4.843003116548e-04-7.162270776462e-12 0.000000000000e+00
    9.000000000000e+00 8.659375000000e+01 4.402683389435e-09-7.901464282903e-01
    4.589557647705e-06 1.746620528866e-02 8.270144462585e-06 5.153719493866e+03
    1.727840000000e+05-2.291053533554e-07-1.669000940748e+00-7.450580596924e-09
    9.707825378350e-01 2.296562500000e+02-1.327032736171e+00-8.265344284766e-09
   -5.785955293977e-11 1.000000000000e+00 2.179000000000e+03 0.000000000000e+00
    2.400000000000e+00 6.300000000000e+01-1.117587089539e-08 9.000000000000e+00
    1.656000000000e+05 4.000000000000e+00
 2 21 10 12  0  0  0.0-6.369776092470e-04-1.818989403546e-12 0.000000000000e+00
    5.500000000000e+01-8.237500000000e+01 4.162316234321e-09 3.005851699046e+00
   -4.084780812263e-06 2.033062663395e-02 4.554167389870e-06 5.153779655457e+03
    1.728000000000e+05 2.887099981308e-07 2.561372604136e-01-2.793967723846e-08
    9.644835285760e-01 2.909375000000e+02-1.488852661718e+00-7.733893576282e-09
   -7.428880871279e-11 1.000000000000e+00 2.179000000000e+03 0.000000000000e+00
    2.400000000000e+00 0.000000000000e+00-1.769512891769e-08 5.500000000000e+01
    1.656000000000e+05 4.000000000000e+00
